IRIDIUM 155             
1 43573U 18061E   21037.59253174  .00000069  00000-0  17735-4 0  9999
2 43573  86.4014 154.4214 0001579  98.7843 261.3532 14.34217738132917
IRIDIUM 154             
1 43574U 18061F   21037.57351355  .00000070  00000-0  17982-4 0  9994
2 43574  86.4018 154.4698 0002341  92.4138 267.7326 14.34218358132969
IRIDIUM 163             
1 43575U 18061G   21037.55448713  .00000078  00000-0  20912-4 0  9993
2 43575  86.4016 154.4526 0002524 107.3454 252.8018 14.34218491132936
IRIDIUM 156             
1 43576U 18061H   21037.59888413  .00000075  00000-0  19552-4 0  9998
2 43576  86.4016 154.4391 0002027 106.9603 253.1815 14.34217714132932
IRIDIUM 164             
1 43577U 18061J   21037.57985963  .00000075  00000-0  19656-4 0  9990
2 43577  86.4018 154.4577 0002352  96.0038 264.1426 14.34217546132970
IRIDIUM 159             
1 43578U 18061K   21037.54812426  .00000082  00000-0  22106-4 0  9993
2 43578  86.4014 154.4486 0002235  94.6169 265.5282 14.34215712132939
IRIDIUM 180             
1 43922U 19002A   21037.54762908  .00000062  00000-0  15057-4 0  9996
2 43922  86.3944  91.3053 0003245  90.8360 269.3208 14.34216086108540
IRIDIUM 176             
1 43923U 19002B   21037.43669346  .00000130  00000-0  16750-4 0  9994
2 43923  86.6079  91.3837 0002542  90.0430 270.1078 14.72250565111352
IRIDIUM 168             
1 43924U 19002C   21037.54130152  .00000061  00000-0  14696-4 0  9995
2 43924  86.3946  91.3299 0002464  90.5514 269.5964 14.34218118108523
IRIDIUM 173             
1 43925U 19002D   21037.59838169  .00000069  00000-0  17550-4 0  9994
2 43925  86.3943  91.2744 0002432  93.1651 266.9823 14.34217844108510
IRIDIUM 169             
1 43926U 19002E   21037.50926575  .00000065  00000-0  14712-4 0  9998
2 43926  86.4241 122.9181 0003190 319.6523  40.4438 14.38603198108912
IRIDIUM 172             
1 43927U 19002F   21037.59201620  .00000067  00000-0  16743-4 0  9993
2 43927  86.3944  91.2789 0002521  92.4365 267.7119 14.34219671108523
IRIDIUM 175             
1 43928U 19002G   21037.43051118  .00000134  00000-0  17304-4 0  9991
2 43928  86.6063  91.2318 0002643 108.3028 251.8477 14.72251876111345
IRIDIUM 171             
1 43929U 19002H   21037.50323545  .00000066  00000-0  16437-4 0  9996
2 43929  86.3954  91.4052 0002447  90.5722 269.5754 14.34218661108505
IRIDIUM 170             
1 43930U 19002J   21037.57883286  .00000125  00000-0  15869-4 0  9992
2 43930  86.6079  91.3308 0002631  97.1481 263.0035 14.72250509111381
IRIDIUM 167             
1 43931U 19002K   21037.56666265  .00000064  00000-0  15742-4 0  9990
2 43931  86.3944  91.2948 0003053  89.6594 270.4951 14.34218433108517
